start=new Date('2021-09-22T00:00:00.000Z').valueOf();
sats=[{"LAUNCH_DATE":"2020-11-25","ECCENTRICITY":"0.00015130","CENTER_NAME":"EARTH","SITE":"AFETR","MEAN_ELEMENT_THEORY":"SGP4","PERIOD":"95.592","ELEMENT_SET_NO":"999","INCLINATION":"53.0554","OBJECT_NAME":"STARLINK-1876","OBJECT_TYPE":"PAYLOAD","EPHEMERIS_TYPE":"0","FILE":"3122258","MEAN_MOTION":"15.06396259","GP_ID":"185188297","EPOCH":"2021-09-21T19:55:16.808160","REF_FRAME":"TEME","MEAN_MOTION_DDOT":"0.0000000000000","MEAN_MOTION_DOT":"-0.00000521","ARG_OF_PERICENTER":"102.6357","MEAN_ANOMALY":"257.4802","CLASSIFICATION_TYPE":"U","NORAD_CAT_ID":"47161","PERIAPSIS":"546.177","TIME_SYSTEM":"UTC","SEMIMAJOR_AXIS":"6925.360","DECAY_DATE":null,"TLE_LINE1":"1 47161U 20088AR  21264.83005565 -.00000521  00000-0 -16074-4 0  9996","APOAPSIS":"548.273","RCS_SIZE":"LARGE","REV_AT_EPOCH":"4632","OBJECT_ID":"2020-088AR","TLE_LINE2":"2 47161  53.0554  48.3399 0001513 102.6357 257.4802 15.06396259 46322","BSTAR":"-0.00001607400000","RA_OF_ASC_NODE":"48.3399","COUNTRY_CODE":"US"},{"ECCENTRICITY":"0.00017630","LAUNCH_DATE":"2020-11-25","CENTER_NAME":"EARTH","SITE":"AFETR","MEAN_ELEMENT_THEORY":"SGP4","PERIOD":"95.592","OBJECT_NAME":"STARLINK-1877","ELEMENT_SET_NO":"999","INCLINATION":"53.0561","EPHEMERIS_TYPE":"0","OBJECT_TYPE":"PAYLOAD","MEAN_MOTION":"15.06399447","GP_ID":"185189045","FILE":"3122258","ARG_OF_PERICENTER":"94.0606","REF_FRAME":"TEME","EPOCH":"2021-09-21T16:37:33.558528","MEAN_MOTION_DOT":"0.00000681","MEAN_MOTION_DDOT":"0.0000000000000","CLASSIFICATION_TYPE":"U","NORAD_CAT_ID":"47162","MEAN_ANOMALY":"266.0584","PERIAPSIS":"545.994","SEMIMAJOR_AXIS":"6925.350","TIME_SYSTEM":"UTC","DECAY_DATE":null,"TLE_LINE1":"1 47162U 20088AS  21264.69274952  .00000681  00000-0  64620-4 0  9994","RCS_SIZE":"LARGE","APOAPSIS":"548.436","REV_AT_EPOCH":"4616","BSTAR":"0.00006462000000","TLE_LINE2":"2 47162  53.0561  58.9474 0001763  94.0606 266.0584 15.06399447 46167","OBJECT_ID":"2020-088AS","RA_OF_ASC_NODE":"58.9474","COUNTRY_CODE":"US"},{"ECCENTRICITY":"0.00013370","LAUNCH_DATE":"2020-11-25","CENTER_NAME":"EARTH","SITE":"AFETR","MEAN_ELEMENT_THEORY":"SGP4","PERIOD":"95.593","OBJECT_NAME":"STARLINK-1878","ELEMENT_SET_NO":"999","INCLINATION":"53.0550","EPHEMERIS_TYPE":"0","OBJECT_TYPE":"PAYLOAD","MEAN_MOTION":"15.06391765","GP_ID":"185189299","FILE":"3122258","ARG_OF_PERICENTER":"105.3840","EPOCH":"2021-09-21T20:35:04.957728","REF_FRAME":"TEME","MEAN_MOTION_DOT":"0.00000756","MEAN_MOTION_DDOT":"0.0000000000000","CLASSIFICATION_TYPE":"U","NORAD_CAT_ID":"47163","MEAN_ANOMALY":"254.7296","PERIAPSIS":"546.313","SEMIMAJOR_AXIS":"6925.374","TIME_SYSTEM":"UTC","DECAY_DATE":null,"TLE_LINE1":"1 47163U 20088AT  21264.85769627  .00000756  00000-0  69635-4 0  9995","RCS_SIZE":"LARGE","APOAPSIS":"548.165","REV_AT_EPOCH":"4604","TLE_LINE2":"2 47163  53.0550  68.3480 0001337 105.3840 254.7296 15.06391765 46047","BSTAR":"0.00006963500000","OBJECT_ID":"2020-088AT","RA_OF_ASC_NODE":"68.3480","COUNTRY_CODE":"US"},{"MEAN_ANOMALY":"243.4560","NORAD_CAT_ID":"47164","CLASSIFICATION_TYPE":"U","SEMIMAJOR_AXIS":"6925.374","TIME_SYSTEM":"UTC","PERIAPSIS":"546.406","DECAY_DATE":null,"TLE_LINE1":"1 47164U 20088AU  21264.84571726 -.00000796  00000-0 -34533-4 0  9991","APOAPSIS":"548.072","RCS_SIZE":"LARGE","REV_AT_EPOCH":"4646","OBJECT_ID":"2020-088AU","BSTAR":"-0.00003453300000","TLE_LINE2":"2 47164  53.0565  38.2604 0001203 116.6553 243.4560 15.06391603 46462","COUNTRY_CODE":"US","RA_OF_ASC_NODE":"38.2604","LAUNCH_DATE":"2020-11-25","ECCENTRICITY":"0.00012030","CENTER_NAME":"EARTH","SITE":"AFETR","MEAN_ELEMENT_THEORY":"SGP4","PERIOD":"95.593","ELEMENT_SET_NO":"999","INCLINATION":"53.0565","OBJECT_NAME":"STARLINK-1879","OBJECT_TYPE":"PAYLOAD","EPHEMERIS_TYPE":"0","FILE":"3122258","GP_ID":"185190047","MEAN_MOTION":"15.06391603","MEAN_MOTION_DOT":"-0.00000796","MEAN_MOTION_DDOT":"0.0000000000000","REF_FRAME":"TEME","EPOCH":"2021-09-21T20:17:49.971264","ARG_OF_PERICENTER":"116.6553"},{"FILE":"3122258","GP_ID":"185188795","MEAN_MOTION":"15.06391696","MEAN_MOTION_DDOT":"0.0000000000000","MEAN_MOTION_DOT":"0.00000655","EPOCH":"2021-09-21T20:25:47.396064","REF_FRAME":"TEME","ARG_OF_PERICENTER":"90.6509","ELEMENT_SET_NO":"999","INCLINATION":"53.0548","OBJECT_NAME":"STARLINK-1880","OBJECT_TYPE":"PAYLOAD","EPHEMERIS_TYPE":"0","MEAN_ELEMENT_THEORY":"SGP4","SITE":"AFETR","PERIOD":"95.593","LAUNCH_DATE":"2020-11-25","ECCENTRICITY":"0.00018230","CENTER_NAME":"EARTH","OBJECT_ID":"2020-088AV","BSTAR":"0.00006289000000","TLE_LINE2":"2 47165  53.0548  58.2505 0001823  90.6509 269.4689 15.06391696 46187","COUNTRY_CODE":"US","RA_OF_ASC_NODE":"58.2505","APOAPSIS":"548.502","RCS_SIZE":"LARGE","REV_AT_EPOCH":"4618","DECAY_DATE":null,"TLE_LINE1":"1 47165U 20088AV  21264.85124301  .00000655  00000-0  62890-4 0  9995","MEAN_ANOMALY":"269.4689","NORAD_CAT_ID":"47165","CLASSIFICATION_TYPE":"U","TIME_SYSTEM":"UTC","SEMIMAJOR_AXIS":"6925.374","PERIAPSIS":"545.977"},{"CENTER_NAME":"EARTH","ECCENTRICITY":"0.00018950","LAUNCH_DATE":"2020-11-25","PERIOD":"94.196","SITE":"AFETR","MEAN_ELEMENT_THEORY":"SGP4","EPHEMERIS_TYPE":"0","OBJECT_TYPE":"PAYLOAD","OBJECT_NAME":"STARLINK-1881","ELEMENT_SET_NO":"999","INCLINATION":"53.0516","ARG_OF_PERICENTER":"113.1354","MEAN_MOTION_DDOT":"0.0000000000000","MEAN_MOTION_DOT":"0.00010625","REF_FRAME":"TEME","EPOCH":"2021-09-21T17:37:11.440416","GP_ID":"185188548","MEAN_MOTION":"15.28733071","FILE":"3122258","SEMIMAJOR_AXIS":"6857.736","TIME_SYSTEM":"UTC","PERIAPSIS":"478.301","NORAD_CAT_ID":"47166","CLASSIFICATION_TYPE":"U","MEAN_ANOMALY":"246.9845","TLE_LINE1":"1 47166U 20088AW  21264.73416019  .00010625  00000-0  38724-3 0  9999","DECAY_DATE":null,"REV_AT_EPOCH":"4660","RCS_SIZE":"LARGE","APOAPSIS":"480.900","COUNTRY_CODE":"US","RA_OF_ASC_NODE":"27.9481","BSTAR":"0.00038724000000","TLE_LINE2":"2 47166  53.0516  27.9481 0001895 113.1354 246.9845 15.28733071 46609","OBJECT_ID":"2020-088AW"},{"OBJECT_NAME":"STARLINK-1884","ELEMENT_SET_NO":"999","INCLINATION":"53.0561","EPHEMERIS_TYPE":"0","OBJECT_TYPE":"PAYLOAD","GP_ID":"185189797","MEAN_MOTION":"15.06396796","FILE":"3122258","ARG_OF_PERICENTER":"200.2752","MEAN_MOTION_DOT":"0.00000845","MEAN_MOTION_DDOT":"0.0000000000000","REF_FRAME":"TEME","EPOCH":"2021-09-21T16:53:28.828032","ECCENTRICITY":"0.00056060","LAUNCH_DATE":"2020-11-25","CENTER_NAME":"EARTH","SITE":"AFETR","MEAN_ELEMENT_THEORY":"SGP4","PERIOD":"95.592","RCS_SIZE":"LARGE","APOAPSIS":"551.106","REV_AT_EPOCH":"4616","BSTAR":"0.00007570600000","TLE_LINE2":"2 47167  53.0561  58.9223 0005606 200.2752 159.8015 15.06396796 46169","OBJECT_ID":"2020-088AX","COUNTRY_CODE":"US","RA_OF_ASC_NODE":"58.9223","NORAD_CAT_ID":"47167","CLASSIFICATION_TYPE":"U","MEAN_ANOMALY":"159.8015","TIME_SYSTEM":"UTC","SEMIMAJOR_AXIS":"6925.358","PERIAPSIS":"543.341","DECAY_DATE":null,"TLE_LINE1":"1 47167U 20088AX  21264.70380588  .00000845  00000-0  75706-4 0  9993"},{"COUNTRY_CODE":"US","RA_OF_ASC_NODE":"58.3345","OBJECT_ID":"2020-088AY","BSTAR":"0.00006026100000","TLE_LINE2":"2 47168  53.0550  58.3345 0001959  97.4987 262.6225 15.06390311 46185","REV_AT_EPOCH":"4618","APOAPSIS":"548.600","RCS_SIZE":"LARGE","TLE_LINE1":"1 47168U 20088AY  21264.83281650  .00000616  00000-0  60261-4 0  9994","DECAY_DATE":null,"SEMIMAJOR_AXIS":"6925.378","TIME_SYSTEM":"UTC","PERIAPSIS":"545.887","MEAN_ANOMALY":"262.6225","NORAD_CAT_ID":"47168","CLASSIFICATION_TYPE":"U","MEAN_MOTION_DDOT":"0.0000000000000","MEAN_MOTION_DOT":"0.00000616","REF_FRAME":"TEME","EPOCH":"2021-09-21T19:59:15.345600","ARG_OF_PERICENTER":"97.4987","FILE":"3122258","GP_ID":"185189550","MEAN_MOTION":"15.06390311","OBJECT_TYPE":"PAYLOAD","EPHEMERIS_TYPE":"0","INCLINATION":"53.0550","ELEMENT_SET_NO":"999","OBJECT_NAME":"STARLINK-1885","PERIOD":"95.593","SITE":"AFETR","MEAN_ELEMENT_THEORY":"SGP4","CENTER_NAME":"EARTH","LAUNCH_DATE":"2020-11-25","ECCENTRICITY":"0.00019590"},{"MEAN_ANOMALY":"101.6750","CLASSIFICATION_TYPE":"U","NORAD_CAT_ID":"47169","PERIAPSIS":"353.328","TIME_SYSTEM":"UTC","SEMIMAJOR_AXIS":"6732.764","DECAY_DATE":null,"TLE_LINE1":"1 47169U 20088AZ  21264.84118086  .00130454  00000-0  98831-3 0  9995","APOAPSIS":"355.929","RCS_SIZE":"LARGE","REV_AT_EPOCH":"4703","OBJECT_ID":"2020-088AZ","TLE_LINE2":"2 47169  53.0724  19.8693 0001932 258.4051 101.6750 15.71493928 47039","BSTAR":"0.00098831000000","RA_OF_ASC_NODE":"19.8693","COUNTRY_CODE":"US","LAUNCH_DATE":"2020-11-25","ECCENTRICITY":"0.00019320","CENTER_NAME":"EARTH","MEAN_ELEMENT_THEORY":"SGP4","SITE":"AFETR","PERIOD":"91.633","INCLINATION":"53.0724","ELEMENT_SET_NO":"999","OBJECT_NAME":"STARLINK-1886","OBJECT_TYPE":"PAYLOAD","EPHEMERIS_TYPE":"0","FILE":"3122049","MEAN_MOTION":"15.71493928","GP_ID":"185164683","REF_FRAME":"TEME","EPOCH":"2021-09-21T20:11:18.026304","MEAN_MOTION_DOT":"0.00130454","MEAN_MOTION_DDOT":"0.0000000000000","ARG_OF_PERICENTER":"258.4051"},{"TLE_LINE1":"1 47170U 20088BA  21264.68905662  .00000841  00000-0  75353-4 0  9994","DECAY_DATE":null,"PERIAPSIS":"545.948","SEMIMAJOR_AXIS":"6925.340","TIME_SYSTEM":"UTC","MEAN_ANOMALY":"275.3701","CLASSIFICATION_TYPE":"U","NORAD_CAT_ID":"47170","RA_OF_ASC_NODE":"58.9837","COUNTRY_CODE":"US","OBJECT_ID":"2020-088BA","BSTAR":"0.00007535300000","TLE_LINE2":"2 47170  53.0574  58.9837 0001815  84.7496 275.3701 15.06402901 46168","REV_AT_EPOCH":"4616","APOAPSIS":"548.462","RCS_SIZE":"LARGE","PERIOD":"95.592","SITE":"AFETR","MEAN_ELEMENT_THEORY":"SGP4","CENTER_NAME":"EARTH","LAUNCH_DATE":"2020-11-25","ECCENTRICITY":"0.00018150","EPOCH":"2021-09-21T16:32:14.491968","REF_FRAME":"TEME","MEAN_MOTION_DOT":"0.00000841","MEAN_MOTION_DDOT":"0.0000000000000","ARG_OF_PERICENTER":"84.7496","FILE":"3122258","MEAN_MOTION":"15.06402901","GP_ID":"185189046","OBJECT_TYPE":"PAYLOAD","EPHEMERIS_TYPE":"0","ELEMENT_SET_NO":"999","INCLINATION":"53.0574","OBJECT_NAME":"STARLINK-1887"}];
